KUIPER-00008            
1 63724U 25088A   25283.73833936 -.00000676  00000+0 -32754-4 0  9992
2 63724  51.8916  50.6773 0011126 317.5535  42.4575 14.99556750 25568
KUIPER-00009            
1 63725U 25088B   25282.71872648  .00005677  00000+0  77112-3 0  9993
2 63725  51.9024  54.1989 0012025 323.0588  36.9545 14.80013044 25421
KUIPER-00010            
1 63726U 25088C   25283.77120595 -.00242012  00000+0 -18585-1 0  9993
2 63726  51.8883  27.1188 0012327 356.9655   3.1240 15.02504030 25513
KUIPER-00011            
1 63727U 25088D   25284.00002315 -.00027968  00000+0 -36466-2 0  9990
2 63727  51.9015  32.5910 0012533 345.1295 269.1915 14.79963731  3827
KUIPER-00012            
1 63728U 25088E   25283.65944880  .00005360  00000+0  25163-3 0  9996
2 63728  51.8748  26.8847 0010326 334.5894  25.4577 15.21151825 25596
KUIPER-00013            
1 63729U 25088F   25283.66289954 -.00002159  00000+0 -25376-3 0  9993
2 63729  51.8966  51.4876 0007522 249.4009 110.6147 14.79953275 25356
KUIPER-00014            
1 63730U 25088G   25283.79646776  .00002325  00000+0  33393-3 0  9999
2 63730  51.9037  51.8671 0007222 317.7880  42.2526 14.79942326 25174
KUIPER-00015            
1 63731U 25088H   25283.77520359  .00003898  00000+0  52223-3 0  9995
2 63731  51.8982  63.7277 0009235 302.6836  57.3236 14.81361299 25461
