<?xml version="1.0" encoding="UTF-8"?>
<ndm xmlns:xsi="http://www.w3.org/2001/XMLSchema-instance" xsi:noNamespaceSchemaLocation="https://sanaregistry.org/r/ndmxml_unqualified/ndmxml-2.0.0-master-2.0.xsd">
<omm id="CCSDS_OMM_VERS" version="2.0">
<header><CREATION_DATE/><ORIGINATOR/></header><body><segment><metadata><OBJECT_NAME>KUIPER-00008</OBJECT_NAME><OBJECT_ID>2025-088A</OBJECT_ID><CENTER_NAME>EARTH</CENTER_NAME><REF_FRAME>TEME</REF_FRAME><TIME_SYSTEM>UTC</TIME_SYSTEM><MEAN_ELEMENT_THEORY>SGP4</MEAN_ELEMENT_THEORY></metadata><data><meanElements><EPOCH>2025-10-10T17:43:12.520704</EPOCH><MEAN_MOTION>14.99556750</MEAN_MOTION><ECCENTRICITY>.00111263</ECCENTRICITY><INCLINATION>51.8916</INCLINATION><RA_OF_ASC_NODE>50.6773</RA_OF_ASC_NODE><ARG_OF_PERICENTER>317.5535</ARG_OF_PERICENTER><MEAN_ANOMALY>42.4575</MEAN_ANOMALY></meanElements><tleParameters><EPHEMERIS_TYPE>0</EPHEMERIS_TYPE><CLASSIFICATION_TYPE>U</CLASSIFICATION_TYPE><NORAD_CAT_ID>63724</NORAD_CAT_ID><ELEMENT_SET_NO>999</ELEMENT_SET_NO><REV_AT_EPOCH>2556</REV_AT_EPOCH><BSTAR>-.32753558E-4</BSTAR><MEAN_MOTION_DOT>-.676E-5</MEAN_MOTION_DOT><MEAN_MOTION_DDOT>0</MEAN_MOTION_DDOT></tleParameters></data></segment></body></omm>
<omm id="CCSDS_OMM_VERS" version="2.0">
<header><CREATION_DATE/><ORIGINATOR/></header><body><segment><metadata><OBJECT_NAME>KUIPER-00009</OBJECT_NAME><OBJECT_ID>2025-088B</OBJECT_ID><CENTER_NAME>EARTH</CENTER_NAME><REF_FRAME>TEME</REF_FRAME><TIME_SYSTEM>UTC</TIME_SYSTEM><MEAN_ELEMENT_THEORY>SGP4</MEAN_ELEMENT_THEORY></metadata><data><meanElements><EPOCH>2025-10-09T17:14:57.967872</EPOCH><MEAN_MOTION>14.80013044</MEAN_MOTION><ECCENTRICITY>.00120251</ECCENTRICITY><INCLINATION>51.9024</INCLINATION><RA_OF_ASC_NODE>54.1989</RA_OF_ASC_NODE><ARG_OF_PERICENTER>323.0588</ARG_OF_PERICENTER><MEAN_ANOMALY>36.9545</MEAN_ANOMALY></meanElements><tleParameters><EPHEMERIS_TYPE>0</EPHEMERIS_TYPE><CLASSIFICATION_TYPE>U</CLASSIFICATION_TYPE><NORAD_CAT_ID>63725</NORAD_CAT_ID><ELEMENT_SET_NO>999</ELEMENT_SET_NO><REV_AT_EPOCH>2542</REV_AT_EPOCH><BSTAR>.77111802E-3</BSTAR><MEAN_MOTION_DOT>.5677E-4</MEAN_MOTION_DOT><MEAN_MOTION_DDOT>0</MEAN_MOTION_DDOT></tleParameters></data></segment></body></omm>
<omm id="CCSDS_OMM_VERS" version="2.0">
<header><CREATION_DATE/><ORIGINATOR/></header><body><segment><metadata><OBJECT_NAME>KUIPER-00010</OBJECT_NAME><OBJECT_ID>2025-088C</OBJECT_ID><CENTER_NAME>EARTH</CENTER_NAME><REF_FRAME>TEME</REF_FRAME><TIME_SYSTEM>UTC</TIME_SYSTEM><MEAN_ELEMENT_THEORY>SGP4</MEAN_ELEMENT_THEORY></metadata><data><meanElements><EPOCH>2025-10-10T18:30:32.194080</EPOCH><MEAN_MOTION>15.02504030</MEAN_MOTION><ECCENTRICITY>.0012327</ECCENTRICITY><INCLINATION>51.8883</INCLINATION><RA_OF_ASC_NODE>27.1188</RA_OF_ASC_NODE><ARG_OF_PERICENTER>356.9655</ARG_OF_PERICENTER><MEAN_ANOMALY>3.1240</MEAN_ANOMALY></meanElements><tleParameters><EPHEMERIS_TYPE>0</EPHEMERIS_TYPE><CLASSIFICATION_TYPE>U</CLASSIFICATION_TYPE><NORAD_CAT_ID>63726</NORAD_CAT_ID><ELEMENT_SET_NO>999</ELEMENT_SET_NO><REV_AT_EPOCH>2551</REV_AT_EPOCH><BSTAR>-.18585323E-1</BSTAR><MEAN_MOTION_DOT>-.242012E-2</MEAN_MOTION_DOT><MEAN_MOTION_DDOT>0</MEAN_MOTION_DDOT></tleParameters></data></segment></body></omm>
<omm id="CCSDS_OMM_VERS" version="2.0">
<header><CREATION_DATE/><ORIGINATOR/></header><body><segment><metadata><OBJECT_NAME>KUIPER-00011</OBJECT_NAME><OBJECT_ID>2025-088D</OBJECT_ID><CENTER_NAME>EARTH</CENTER_NAME><REF_FRAME>TEME</REF_FRAME><TIME_SYSTEM>UTC</TIME_SYSTEM><MEAN_ELEMENT_THEORY>SGP4</MEAN_ELEMENT_THEORY></metadata><data><meanElements><EPOCH>2025-10-11T00:00:02.000160</EPOCH><MEAN_MOTION>14.79963731</MEAN_MOTION><ECCENTRICITY>.00125339</ECCENTRICITY><INCLINATION>51.9015</INCLINATION><RA_OF_ASC_NODE>32.5910</RA_OF_ASC_NODE><ARG_OF_PERICENTER>345.1295</ARG_OF_PERICENTER><MEAN_ANOMALY>269.1915</MEAN_ANOMALY></meanElements><tleParameters><EPHEMERIS_TYPE>0</EPHEMERIS_TYPE><CLASSIFICATION_TYPE>U</CLASSIFICATION_TYPE><NORAD_CAT_ID>63727</NORAD_CAT_ID><ELEMENT_SET_NO>999</ELEMENT_SET_NO><REV_AT_EPOCH>382</REV_AT_EPOCH><BSTAR>-.36466317E-2</BSTAR><MEAN_MOTION_DOT>-.27968E-3</MEAN_MOTION_DOT><MEAN_MOTION_DDOT>0</MEAN_MOTION_DDOT></tleParameters></data></segment></body></omm>
<omm id="CCSDS_OMM_VERS" version="2.0">
<header><CREATION_DATE/><ORIGINATOR/></header><body><segment><metadata><OBJECT_NAME>KUIPER-00012</OBJECT_NAME><OBJECT_ID>2025-088E</OBJECT_ID><CENTER_NAME>EARTH</CENTER_NAME><REF_FRAME>TEME</REF_FRAME><TIME_SYSTEM>UTC</TIME_SYSTEM><MEAN_ELEMENT_THEORY>SGP4</MEAN_ELEMENT_THEORY></metadata><data><meanElements><EPOCH>2025-10-10T15:49:36.376320</EPOCH><MEAN_MOTION>15.21151825</MEAN_MOTION><ECCENTRICITY>.00103261</ECCENTRICITY><INCLINATION>51.8748</INCLINATION><RA_OF_ASC_NODE>26.8847</RA_OF_ASC_NODE><ARG_OF_PERICENTER>334.5894</ARG_OF_PERICENTER><MEAN_ANOMALY>25.4577</MEAN_ANOMALY></meanElements><tleParameters><EPHEMERIS_TYPE>0</EPHEMERIS_TYPE><CLASSIFICATION_TYPE>U</CLASSIFICATION_TYPE><NORAD_CAT_ID>63728</NORAD_CAT_ID><ELEMENT_SET_NO>999</ELEMENT_SET_NO><REV_AT_EPOCH>2559</REV_AT_EPOCH><BSTAR>.25162667E-3</BSTAR><MEAN_MOTION_DOT>.536E-4</MEAN_MOTION_DOT><MEAN_MOTION_DDOT>0</MEAN_MOTION_DDOT></tleParameters></data></segment></body></omm>
<omm id="CCSDS_OMM_VERS" version="2.0">
<header><CREATION_DATE/><ORIGINATOR/></header><body><segment><metadata><OBJECT_NAME>KUIPER-00013</OBJECT_NAME><OBJECT_ID>2025-088F</OBJECT_ID><CENTER_NAME>EARTH</CENTER_NAME><REF_FRAME>TEME</REF_FRAME><TIME_SYSTEM>UTC</TIME_SYSTEM><MEAN_ELEMENT_THEORY>SGP4</MEAN_ELEMENT_THEORY></metadata><data><meanElements><EPOCH>2025-10-10T15:54:34.520256</EPOCH><MEAN_MOTION>14.79953275</MEAN_MOTION><ECCENTRICITY>.00075227</ECCENTRICITY><INCLINATION>51.8966</INCLINATION><RA_OF_ASC_NODE>51.4876</RA_OF_ASC_NODE><ARG_OF_PERICENTER>249.4009</ARG_OF_PERICENTER><MEAN_ANOMALY>110.6147</MEAN_ANOMALY></meanElements><tleParameters><EPHEMERIS_TYPE>0</EPHEMERIS_TYPE><CLASSIFICATION_TYPE>U</CLASSIFICATION_TYPE><NORAD_CAT_ID>63729</NORAD_CAT_ID><ELEMENT_SET_NO>999</ELEMENT_SET_NO><REV_AT_EPOCH>2535</REV_AT_EPOCH><BSTAR>-.25375976E-3</BSTAR><MEAN_MOTION_DOT>-.2159E-4</MEAN_MOTION_DOT><MEAN_MOTION_DDOT>0</MEAN_MOTION_DDOT></tleParameters></data></segment></body></omm>
<omm id="CCSDS_OMM_VERS" version="2.0">
<header><CREATION_DATE/><ORIGINATOR/></header><body><segment><metadata><OBJECT_NAME>KUIPER-00014</OBJECT_NAME><OBJECT_ID>2025-088G</OBJECT_ID><CENTER_NAME>EARTH</CENTER_NAME><REF_FRAME>TEME</REF_FRAME><TIME_SYSTEM>UTC</TIME_SYSTEM><MEAN_ELEMENT_THEORY>SGP4</MEAN_ELEMENT_THEORY></metadata><data><meanElements><EPOCH>2025-10-10T19:06:54.814464</EPOCH><MEAN_MOTION>14.79942326</MEAN_MOTION><ECCENTRICITY>.00072225</ECCENTRICITY><INCLINATION>51.9037</INCLINATION><RA_OF_ASC_NODE>51.8671</RA_OF_ASC_NODE><ARG_OF_PERICENTER>317.7880</ARG_OF_PERICENTER><MEAN_ANOMALY>42.2526</MEAN_ANOMALY></meanElements><tleParameters><EPHEMERIS_TYPE>0</EPHEMERIS_TYPE><CLASSIFICATION_TYPE>U</CLASSIFICATION_TYPE><NORAD_CAT_ID>63730</NORAD_CAT_ID><ELEMENT_SET_NO>999</ELEMENT_SET_NO><REV_AT_EPOCH>2517</REV_AT_EPOCH><BSTAR>.33392993E-3</BSTAR><MEAN_MOTION_DOT>.2325E-4</MEAN_MOTION_DOT><MEAN_MOTION_DDOT>0</MEAN_MOTION_DDOT></tleParameters></data></segment></body></omm>
<omm id="CCSDS_OMM_VERS" version="2.0">
<header><CREATION_DATE/><ORIGINATOR/></header><body><segment><metadata><OBJECT_NAME>KUIPER-00015</OBJECT_NAME><OBJECT_ID>2025-088H</OBJECT_ID><CENTER_NAME>EARTH</CENTER_NAME><REF_FRAME>TEME</REF_FRAME><TIME_SYSTEM>UTC</TIME_SYSTEM><MEAN_ELEMENT_THEORY>SGP4</MEAN_ELEMENT_THEORY></metadata><data><meanElements><EPOCH>2025-10-10T18:36:17.590176</EPOCH><MEAN_MOTION>14.81361299</MEAN_MOTION><ECCENTRICITY>.00092352</ECCENTRICITY><INCLINATION>51.8982</INCLINATION><RA_OF_ASC_NODE>63.7277</RA_OF_ASC_NODE><ARG_OF_PERICENTER>302.6836</ARG_OF_PERICENTER><MEAN_ANOMALY>57.3236</MEAN_ANOMALY></meanElements><tleParameters><EPHEMERIS_TYPE>0</EPHEMERIS_TYPE><CLASSIFICATION_TYPE>U</CLASSIFICATION_TYPE><NORAD_CAT_ID>63731</NORAD_CAT_ID><ELEMENT_SET_NO>999</ELEMENT_SET_NO><REV_AT_EPOCH>2546</REV_AT_EPOCH><BSTAR>.52222795E-3</BSTAR><MEAN_MOTION_DOT>.3898E-4</MEAN_MOTION_DOT><MEAN_MOTION_DDOT>0</MEAN_MOTION_DDOT></tleParameters></data></segment></body></omm>

</ndm>
